2016/02/05 06:55
KHYX 050655Z AUTO 22004KT 10SM CLR M05/M06 A3028 RMK AO2
